ONEWEB-0424             
1 50497U 21132AE  24079.12736437 -.00000379  00000+0 -99371-3 0  9991
2 50497  87.9185 138.6939 0001880 116.6370 243.4955 13.18684483114841
ONEWEB-0426             
1 50498U 21132AF  24079.16530194  .00000088  00000+0  19041-3 0  9999
2 50498  87.9181 138.7069 0002719 101.8565 258.2872 13.18688508114807
ONEWEB-0427             
1 50499U 21132AG  24078.59465815  .00000105  00000+0  23426-3 0  9995
2 50499  87.9186 138.7966 0002276 105.3813 254.7571 13.18684595114766
ONEWEB-0429             
1 50500U 21132AH  24079.18903577  .00000057  00000+0  11134-3 0  9995
2 50500  87.9191 138.6791 0001984  98.6517 261.4840 13.18685017114809
ONEWEB-0430             
1 50501U 21132AJ  24079.17796644  .00000067  00000+0  13841-3 0  9998
2 50501  87.9187 138.6890 0001671 112.3031 247.8278 13.18685461114843
ONEWEB-0432             
1 50502U 21132AK  24079.13369623  .00000081  00000+0  17287-3 0  9992
2 50502  87.9186 138.6916 0001870 100.3121 259.8222 13.18684012114809
ONEWEB-0440             
1 50503U 21132AL  24079.19691981  .00001248  00000+0  31329-2 0  9992
2 50503  87.9190 138.6660 0001932  90.8449 269.2905 13.18682188114799
ONEWEB-0450             
1 50504U 21132AM  24079.19071043 -.00000281  00000+0 -74559-3 0  9995
2 50504  87.9193 138.6957 0001422  97.8869 262.2425 13.18625537114828
